{
  "type": "FeatureCollection",
  "description": "Bahrain offshore oil and gas platform exclusion zones. Each feature represents an offshore installation. A 500m safety buffer is enforced per UNCLOS Article 60.",
  "features": [
    {
      "type": "Feature",
      "properties": {
        "name": "Abu Saafa Platform",
        "operator": "BAPCO / Saudi Aramco",
        "type": "oil_platform",
        "buffer_m": 500
      },
      "geometry": {
        "type": "Point",
        "coordinates": [50.1667, 26.2000]
      }
    },
    {
      "type": "Feature",
      "properties": {
        "name": "BAPCO Offshore Platform A",
        "operator": "BAPCO",
        "type": "oil_platform",
        "buffer_m": 500
      },
      "geometry": {
        "type": "Point",
        "coordinates": [50.4500, 26.0500]
      }
    },
    {
      "type": "Feature",
      "properties": {
        "name": "BAPCO Offshore Platform B",
        "operator": "BAPCO",
        "type": "oil_platform",
        "buffer_m": 500
      },
      "geometry": {
        "type": "Point",
        "coordinates": [50.5200, 26.1200]
      }
    },
    {
      "type": "Feature",
      "properties": {
        "name": "BAPCO Offshore Platform C",
        "operator": "BAPCO",
        "type": "oil_platform",
        "buffer_m": 500
      },
      "geometry": {
        "type": "Point",
        "coordinates": [50.4800, 25.9800]
      }
    },
    {
      "type": "Feature",
      "properties": {
        "name": "Hawar Islands Gas Installation",
        "operator": "NOGA",
        "type": "gas_installation",
        "buffer_m": 500
      },
      "geometry": {
        "type": "Point",
        "coordinates": [50.7800, 25.6700]
      }
    },
    {
      "type": "Feature",
      "properties": {
        "name": "NOGA Offshore Rig Alpha",
        "operator": "NOGA",
        "type": "oil_platform",
        "buffer_m": 500
      },
      "geometry": {
        "type": "Point",
        "coordinates": [50.6300, 26.3500]
      }
    },
    {
      "type": "Feature",
      "properties": {
        "name": "NOGA Offshore Rig Beta",
        "operator": "NOGA",
        "type": "oil_platform",
        "buffer_m": 500
      },
      "geometry": {
        "type": "Point",
        "coordinates": [50.6800, 26.4000]
      }
    },
    {
      "type": "Feature",
      "properties": {
        "name": "Khuff Gas Field Wellhead",
        "operator": "BAPCO",
        "type": "gas_installation",
        "buffer_m": 500
      },
      "geometry": {
        "type": "Point",
        "coordinates": [50.5500, 26.2800]
      }
    }
  ]
}
